{
  "norad_id": 68540,
  "name": "SWC-1",
  "history": [
    {
      "epoch": "2026-04-02T12:20:34.000224Z",
      "apogee_km": 70425.49552793844,
      "perigee_km": 413.52509364823254,
      "latitude_deg": -28.15266596803199,
      "longitude_deg": -113.71191350942748,
      "height_km": 68038.48351281437,
      "semi_major_axis_km": 41797.64731079334,
      "eccentricity": 0.8375109,
      "inclination_deg": 28.3462,
      "raan_deg": 359.8168,
      "arg_perigee_deg": 77.163,
      "mean_anomaly_deg": 217.7352,
      "mean_motion_rev_day": 1.01595625
    }
  ]
}