{"fetched_at":"2026-04-05T12:57:33Z","count":17389,"tles":[{"name":"SWC-1","line1":"1 68540U 26069C   26092.51428241 -.00154659  00000+0 -17117+1 0  9990","line2":"2 68540  28.3462 359.8168 8375109  77.1630 217.7352  1.01595625    08","category":"Other"}]}